BRO-1                   
1 44495U 19054A   26189.97444321  .00667575  23136-3  83169-3 0  9999
2 44495  44.9842 157.3555 0008485 131.8958 228.2680 16.06866224383227
BRO-5                   
1 51061U 22002CF  26189.97107969  .00021629  00000+0  40612-3 0  9998
2 51061  97.2987 263.8498 0004720 227.3786 132.7067 15.48617781249622
BRO-6                   
1 52422U 22047AE  26189.94008345  .00031725  00000+0  52391-3 0  9999
2 52422  97.3388 281.4362 0003161 345.2459  14.8701 15.52194355234521
BRO-8                   
1 55011U 23001C   26189.93734039  .00024338  00000+0  42803-3 0  9991
2 55011  97.3192 255.4537 0005550  61.0305 299.1503 15.50460101195575
BRO-11                  
1 58264U 23174J   26189.93116749  .00002868  00000+0  10901-3 0  9995
2 58264  97.3898 266.5773 0011755 126.7557 233.4763 15.27555354148079
BRO-13                  
1 59107U 24043K   26189.95519317  .00000654  00000+0  62630-4 0  9996
2 59107  97.8516 321.0462 0007731 287.8046  72.2331 14.96640519127879
BRO-12                  
1 59108U 24043L   26189.94775450  .00000412  00000+0  41122-4 0  9993
2 59108  97.8506 321.2067 0007074 282.9992  77.0439 14.96886599127892
BRO-14                  
1 60551U 24149CM  26189.46234433  .00000498  00000+0  49245-4 0  9990
2 60551  97.6862 264.8578 0007328  36.5112 323.6608 14.96225728103171
BRO-15                  
1 60553U 24149CP  26189.77936978  .00000386  00000+0  39270-4 0  9992
2 60553  97.6797 264.7511 0008566  26.1337 334.0315 14.96221261103231
BRO-16                  
1 62654U 25009AX  26189.74604210  .00002377  00000+0  10079-3 0  9997
2 62654  97.4051 269.9662 0001514 168.2378 191.8895 15.24099336 82088
BRO-18                  
1 64550U 25135Y   26189.94645019  .00002825  00000+0  12631-3 0  9992
2 64550  97.4645 304.8105 0002232 123.1820 236.9630 15.22139439 58184
BRO-17                  
1 66672U 25276G   26189.73675324  .00002137  00000+0  10801-3 0  9997
2 66672  97.4183 262.4300 0005111 289.1220  70.9460 15.18131277 33660
BRO-20                  
1 66674U 25276J   26189.64758859  .00002209  00000+0  11096-3 0  9991
2 66674  97.4162 262.3311 0004760 294.0480  66.0256 15.18302520 33651
BRO-19                  
1 68422U 26067G   26189.78972601  .00002199  00000+0  10848-3 0  9993
2 68422  97.4478 147.9388 0002315 115.7974 244.3499 15.18960498 15224
BRO-21                  
1 69007U 26100AD  26189.69638385  .00001614  00000+0  74556-4 0  9997
2 69007  97.4020  87.2384 0007538 353.3605   6.7530 15.21599743 10071
BRO-22                  
1 69504U 26132C   26189.90289229  .00000787  00000+0  68330-4 0  9990
2 69504  97.6833 253.3050 0015884 203.7127 156.3366 14.99794916  4034
