{"fetched_at":"2026-07-09T07:59:55.059Z","source":"https://celestrak.org/NORAD/elements/gp.php?NAME=BRO&FORMAT=JSON","constellation":"unseenlabs","records":[{"OBJECT_NAME":"BRO-1","OBJECT_ID":"2019-054A","EPOCH":"2026-07-08T23:23:11.893344","CLASSIFICATION_TYPE":"U","MEAN_MOTION":16.06866224,"ECCENTRICITY":0.00084852,"INCLINATION":44.9842,"RA_OF_ASC_NODE":157.3555,"ARG_OF_PERICENTER":131.8958,"MEAN_ANOMALY":228.268,"EPHEMERIS_TYPE":0,"NORAD_CAT_ID":44495,"ELEMENT_SET_NO":999,"REV_AT_EPOCH":38322,"BSTAR":0.0008316904,"MEAN_MOTION_DOT":0.00667575,"MEAN_MOTION_DDOT":0.00023135623},{"OBJECT_NAME":"BRO-5","OBJECT_ID":"2022-002CF","EPOCH":"2026-07-08T23:18:21.285216","CLASSIFICATION_TYPE":"U","MEAN_MOTION":15.48617781,"ECCENTRICITY":0.00047202,"INCLINATION":97.2987,"RA_OF_ASC_NODE":263.8498,"ARG_OF_PERICENTER":227.3786,"MEAN_ANOMALY":132.7067,"EPHEMERIS_TYPE":0,"NORAD_CAT_ID":51061,"ELEMENT_SET_NO":999,"REV_AT_EPOCH":24962,"BSTAR":0.00040612125,"MEAN_MOTION_DOT":0.00021629,"MEAN_MOTION_DDOT":0},{"OBJECT_NAME":"BRO-6","OBJECT_ID":"2022-047AE","EPOCH":"2026-07-08T22:33:43.210080","CLASSIFICATION_TYPE":"U","MEAN_MOTION":15.52194355,"ECCENTRICITY":0.00031618,"INCLINATION":97.3388,"RA_OF_ASC_NODE":281.4362,"ARG_OF_PERICENTER":345.2459,"MEAN_ANOMALY":14.8701,"EPHEMERIS_TYPE":0,"NORAD_CAT_ID":52422,"ELEMENT_SET_NO":999,"REV_AT_EPOCH":23452,"BSTAR":0.00052391273,"MEAN_MOTION_DOT":0.00031725,"MEAN_MOTION_DDOT":0},{"OBJECT_NAME":"BRO-8","OBJECT_ID":"2023-001C","EPOCH":"2026-07-08T22:29:46.209696","CLASSIFICATION_TYPE":"U","MEAN_MOTION":15.50460101,"ECCENTRICITY":0.00055504,"INCLINATION":97.3192,"RA_OF_ASC_NODE":255.4537,"ARG_OF_PERICENTER":61.0305,"MEAN_ANOMALY":299.1503,"EPHEMERIS_TYPE":0,"NORAD_CAT_ID":55011,"ELEMENT_SET_NO":999,"REV_AT_EPOCH":19557,"BSTAR":0.00042803384,"MEAN_MOTION_DOT":0.00024338,"MEAN_MOTION_DDOT":0},{"OBJECT_NAME":"BRO-11","OBJECT_ID":"2023-174J","EPOCH":"2026-07-08T22:20:52.871136","CLASSIFICATION_TYPE":"U","MEAN_MOTION":15.27555354,"ECCENTRICITY":0.00117556,"INCLINATION":97.3898,"RA_OF_ASC_NODE":266.5773,"ARG_OF_PERICENTER":126.7557,"MEAN_ANOMALY":233.4763,"EPHEMERIS_TYPE":0,"NORAD_CAT_ID":58264,"ELEMENT_SET_NO":999,"REV_AT_EPOCH":14807,"BSTAR":0.0001090082,"MEAN_MOTION_DOT":0.00002868,"MEAN_MOTION_DDOT":0},{"OBJECT_NAME":"BRO-13","OBJECT_ID":"2024-043K","EPOCH":"2026-07-08T22:55:28.689888","CLASSIFICATION_TYPE":"U","MEAN_MOTION":14.96640519,"ECCENTRICITY":0.00077311,"INCLINATION":97.8516,"RA_OF_ASC_NODE":321.0462,"ARG_OF_PERICENTER":287.8046,"MEAN_ANOMALY":72.2331,"EPHEMERIS_TYPE":0,"NORAD_CAT_ID":59107,"ELEMENT_SET_NO":999,"REV_AT_EPOCH":12787,"BSTAR":0.000062629994,"MEAN_MOTION_DOT":0.00000654,"MEAN_MOTION_DDOT":0},{"OBJECT_NAME":"BRO-12","OBJECT_ID":"2024-043L","EPOCH":"2026-07-08T22:44:45.988800","CLASSIFICATION_TYPE":"U","MEAN_MOTION":14.96886599,"ECCENTRICITY":0.00070748,"INCLINATION":97.8506,"RA_OF_ASC_NODE":321.2067,"ARG_OF_PERICENTER":282.9992,"MEAN_ANOMALY":77.0439,"EPHEMERIS_TYPE":0,"NORAD_CAT_ID":59108,"ELEMENT_SET_NO":999,"REV_AT_EPOCH":12789,"BSTAR":0.000041122039,"MEAN_MOTION_DOT":0.00000412,"MEAN_MOTION_DDOT":0},{"OBJECT_NAME":"BRO-14","OBJECT_ID":"2024-149CM","EPOCH":"2026-07-08T11:05:46.550112","CLASSIFICATION_TYPE":"U","MEAN_MOTION":14.96225728,"ECCENTRICITY":0.00073282,"INCLINATION":97.6862,"RA_OF_ASC_NODE":264.8578,"ARG_OF_PERICENTER":36.5112,"MEAN_ANOMALY":323.6608,"EPHEMERIS_TYPE":0,"NORAD_CAT_ID":60551,"ELEMENT_SET_NO":999,"REV_AT_EPOCH":10317,"BSTAR":0.000049245054,"MEAN_MOTION_DOT":0.00000498,"MEAN_MOTION_DDOT":0},{"OBJECT_NAME":"BRO-15","OBJECT_ID":"2024-149CP","EPOCH":"2026-07-08T18:42:17.548992","CLASSIFICATION_TYPE":"U","MEAN_MOTION":14.96221261,"ECCENTRICITY":0.00085664,"INCLINATION":97.6797,"RA_OF_ASC_NODE":264.7511,"ARG_OF_PERICENTER":26.1337,"MEAN_ANOMALY":334.0315,"EPHEMERIS_TYPE":0,"NORAD_CAT_ID":60553,"ELEMENT_SET_NO":999,"REV_AT_EPOCH":10323,"BSTAR":0.000039270068,"MEAN_MOTION_DOT":0.00000386,"MEAN_MOTION_DDOT":0},{"OBJECT_NAME":"BRO-16","OBJECT_ID":"2025-009AX","EPOCH":"2026-07-08T17:54:18.037440","CLASSIFICATION_TYPE":"U","MEAN_MOTION":15.24099336,"ECCENTRICITY":0.00015149,"INCLINATION":97.4051,"RA_OF_ASC_NODE":269.9662,"ARG_OF_PERICENTER":168.2378,"MEAN_ANOMALY":191.8895,"EPHEMERIS_TYPE":0,"NORAD_CAT_ID":62654,"ELEMENT_SET_NO":999,"REV_AT_EPOCH":8208,"BSTAR":0.00010078954,"MEAN_MOTION_DOT":0.00002377,"MEAN_MOTION_DDOT":0},{"OBJECT_NAME":"BRO-18","OBJECT_ID":"2025-135Y","EPOCH":"2026-07-08T22:42:53.296416","CLASSIFICATION_TYPE":"U","MEAN_MOTION":15.22139439,"ECCENTRICITY":0.00022325,"INCLINATION":97.4645,"RA_OF_ASC_NODE":304.8105,"ARG_OF_PERICENTER":123.182,"MEAN_ANOMALY":236.963,"EPHEMERIS_TYPE":0,"NORAD_CAT_ID":64550,"ELEMENT_SET_NO":999,"REV_AT_EPOCH":5818,"BSTAR":0.00012630901,"MEAN_MOTION_DOT":0.00002825,"MEAN_MOTION_DDOT":0},{"OBJECT_NAME":"BRO-17","OBJECT_ID":"2025-276G","EPOCH":"2026-07-08T17:40:55.479936","CLASSIFICATION_TYPE":"U","MEAN_MOTION":15.18131277,"ECCENTRICITY":0.00051111,"INCLINATION":97.4183,"RA_OF_ASC_NODE":262.43,"ARG_OF_PERICENTER":289.122,"MEAN_ANOMALY":70.946,"EPHEMERIS_TYPE":0,"NORAD_CAT_ID":66672,"ELEMENT_SET_NO":999,"REV_AT_EPOCH":3366,"BSTAR":0.00010800785,"MEAN_MOTION_DOT":0.00002137,"MEAN_MOTION_DDOT":0},{"OBJECT_NAME":"BRO-20","OBJECT_ID":"2025-276J","EPOCH":"2026-07-08T15:32:31.654176","CLASSIFICATION_TYPE":"U","MEAN_MOTION":15.1830252,"ECCENTRICITY":0.00047607,"INCLINATION":97.4162,"RA_OF_ASC_NODE":262.3311,"ARG_OF_PERICENTER":294.048,"MEAN_ANOMALY":66.0256,"EPHEMERIS_TYPE":0,"NORAD_CAT_ID":66674,"ELEMENT_SET_NO":999,"REV_AT_EPOCH":3365,"BSTAR":0.00011095844,"MEAN_MOTION_DOT":0.00002209,"MEAN_MOTION_DDOT":0},{"OBJECT_NAME":"BRO-19","OBJECT_ID":"2026-067G","EPOCH":"2026-07-08T18:57:12.327264","CLASSIFICATION_TYPE":"U","MEAN_MOTION":15.18960498,"ECCENTRICITY":0.00023152,"INCLINATION":97.4478,"RA_OF_ASC_NODE":147.9388,"ARG_OF_PERICENTER":115.7974,"MEAN_ANOMALY":244.3499,"EPHEMERIS_TYPE":0,"NORAD_CAT_ID":68422,"ELEMENT_SET_NO":999,"REV_AT_EPOCH":1522,"BSTAR":0.00010848022,"MEAN_MOTION_DOT":0.00002199,"MEAN_MOTION_DDOT":0},{"OBJECT_NAME":"BRO-21","OBJECT_ID":"2026-100AD","EPOCH":"2026-07-08T16:42:47.564640","CLASSIFICATION_TYPE":"U","MEAN_MOTION":15.21599743,"ECCENTRICITY":0.00075385,"INCLINATION":97.402,"RA_OF_ASC_NODE":87.2384,"ARG_OF_PERICENTER":353.3605,"MEAN_ANOMALY":6.753,"EPHEMERIS_TYPE":0,"NORAD_CAT_ID":69007,"ELEMENT_SET_NO":999,"REV_AT_EPOCH":1007,"BSTAR":0.000074555828,"MEAN_MOTION_DOT":0.00001614,"MEAN_MOTION_DDOT":0},{"OBJECT_NAME":"BRO-22","OBJECT_ID":"2026-132C","EPOCH":"2026-07-08T21:40:09.893856","CLASSIFICATION_TYPE":"U","MEAN_MOTION":14.99794916,"ECCENTRICITY":0.00158846,"INCLINATION":97.6833,"RA_OF_ASC_NODE":253.305,"ARG_OF_PERICENTER":203.7127,"MEAN_ANOMALY":156.3366,"EPHEMERIS_TYPE":0,"NORAD_CAT_ID":69504,"ELEMENT_SET_NO":999,"REV_AT_EPOCH":403,"BSTAR":0.000068329697,"MEAN_MOTION_DOT":0.00000787,"MEAN_MOTION_DDOT":0}]}
